{
  "updated": "2026-07-14T01:58:08.177Z",
  "capsules": {
    "66664": {
      "name": "SOYUZ-MS 28",
      "kind": "crew",
      "family": "soyuz",
      "phase": "docked",
      "stationKey": "iss",
      "since": "2026-07-03T10:34:14.509Z",
      "distanceKm": 0,
      "altitudeKm": 427.3,
      "inclinationDeg": 51.631,
      "l1": "1 66664U 25275A   26194.31484285  .00004029  00000+0  81266-4 0  9997",
      "l2": "2 66664  51.6305 170.7871 0006687 290.3592  69.6678 15.48997295646162"
    },
    "67796": {
      "name": "CREW DRAGON 12",
      "kind": "crew",
      "family": "dragon",
      "phase": "docked",
      "stationKey": "iss",
      "since": "2026-07-03T10:34:14.509Z",
      "distanceKm": 0,
      "altitudeKm": 427.3,
      "inclinationDeg": 51.631,
      "l1": "1 67796U 26031A   26194.31484285  .00004029  00000+0  81266-4 0  9995",
      "l2": "2 67796  51.6305 170.7871 0006687 290.3592  69.6678 15.48997295628664"
    },
    "68319": {
      "name": "PROGRESS-MS 33",
      "kind": "cargo",
      "family": "progress",
      "phase": "docked",
      "stationKey": "iss",
      "since": "2026-07-10T20:18:26.588Z",
      "distanceKm": 0,
      "altitudeKm": 427.3,
      "inclinationDeg": 51.631,
      "l1": "1 68319U 26058A   26194.31484285  .00004029  00000+0  81266-4 0  9996",
      "l2": "2 68319  51.6305 170.7871 0006687 290.3592  69.6678 15.48997295663890"
    },
    "68689": {
      "name": "CYGNUS NG-24",
      "kind": "cargo",
      "family": "cygnus",
      "phase": "docked",
      "stationKey": "iss",
      "since": "2026-07-10T20:18:26.588Z",
      "distanceKm": 0,
      "altitudeKm": 427.3,
      "inclinationDeg": 51.631,
      "l1": "1 68689U 26079A   26194.31484285  .00004029  00000+0  81266-4 0  9999",
      "l2": "2 68689  51.6305 170.7871 0006687 290.3592  69.6678 15.48997295681856"
    },
    "68837": {
      "name": "PROGRESS-MS 34",
      "kind": "cargo",
      "family": "progress",
      "phase": "docked",
      "stationKey": "iss",
      "since": "2026-07-10T20:18:26.588Z",
      "distanceKm": 0,
      "altitudeKm": 427.3,
      "inclinationDeg": 51.631,
      "l1": "1 68837U 26093A   26194.31484285  .00004029  00000+0  81266-4 0  9990",
      "l2": "2 68837  51.6305 170.7871 0006687 290.3592  69.6678 15.48997295699580"
    },
    "69049": {
      "name": "TIANZHOU-10",
      "kind": "cargo",
      "family": "tianzhou",
      "phase": "docked",
      "stationKey": "css",
      "since": "2026-07-10T20:18:26.588Z",
      "distanceKm": 0,
      "altitudeKm": 402.6,
      "inclinationDeg": 41.469,
      "l1": "1 69049U 26102A   26194.54839549  .00000774  00000+0  14285-4 0  9999",
      "l2": "2 69049  41.4687 161.8154 0002308 295.5855  64.4744 15.58055023296615"
    },
    "69180": {
      "name": "SHENZHOU-23 (SZ-23)",
      "kind": "crew",
      "family": "shenzhou",
      "phase": "docked",
      "stationKey": "css",
      "since": "2026-07-03T10:34:14.509Z",
      "distanceKm": 0,
      "altitudeKm": 402.6,
      "inclinationDeg": 41.469,
      "l1": "1 69180U 26113A   26194.54839549  .00000774  00000+0  14285-4 0  9997",
      "l2": "2 69180  41.4687 161.8154 0002308 295.5855  64.4744 15.58055023296059"
    }
  },
  "events": [
    {
      "id": "68319",
      "name": "PROGRESS-MS 33",
      "kind": "cargo",
      "family": "progress",
      "stationKey": "iss",
      "event": "launched",
      "at": "2026-07-10T20:18:26.588Z"
    },
    {
      "id": "68689",
      "name": "CYGNUS NG-24",
      "kind": "cargo",
      "family": "cygnus",
      "stationKey": "iss",
      "event": "launched",
      "at": "2026-07-10T20:18:26.588Z"
    },
    {
      "id": "68837",
      "name": "PROGRESS-MS 34",
      "kind": "cargo",
      "family": "progress",
      "stationKey": "iss",
      "event": "launched",
      "at": "2026-07-10T20:18:26.588Z"
    },
    {
      "id": "69049",
      "name": "TIANZHOU-10",
      "kind": "cargo",
      "family": "tianzhou",
      "stationKey": "css",
      "event": "launched",
      "at": "2026-07-10T20:18:26.588Z"
    }
  ]
}
